{"format":"tle-catalog-v1","generatedAt":"2026-07-01T14:19:31.438Z","count":19018,"entries":[{"name":"2026-134A","line1":"1 69538U 26134A   26182.11127006  .00005448  00000+0  34470-3 0  9995","line2":"2 69538  97.7008 252.2684 0014799 219.1628 140.8530 15.09339832  2413"},{"name":"2026-134B","line1":"1 69539U 26134B   26182.10961692  .00005344  00000+0  33673-3 0  9991","line2":"2 69539  97.6983 252.2659 0014890 221.7966 138.2127 15.09495983  2405"},{"name":"2026-134C","line1":"1 69540U 26134C   26182.10928618  .00005327  00000+0  33543-3 0  9991","line2":"2 69540  97.6988 252.2673 0014323 223.0200 136.9910 15.09527840  2408"},{"name":"STARLINK-37232","line1":"1 69515U 26133H   26182.16670139 -.02500701  00000+0 -23267-1 0  9990","line2":"2 69515  53.1594 251.9399 0001194  86.6552 116.4148 15.70056817  4111"},{"name":"STARLINK-37323","line1":"1 69516U 26133J   26182.12338490  .00274475  00000+0  13442-2 0  9995","line2":"2 69516  53.1586 252.0682 0001386  29.3556 330.7544 15.80973029  4239"},{"name":"STARLINK-37352","line1":"1 69524U 26133S   26182.16670139 -.02378056  00000+0 -19977-1 0  9999","line2":"2 69524  53.1590 251.6711 0000776  78.8389 253.3735 15.72874032  4165"},{"name":"STARLINK-37357","line1":"1 69517U 26133K   26182.16670139 -.02402819  00000+0 -29680-1 0  9998","line2":"2 69517  53.1594 252.0523 0001315  74.1829  73.4743 15.62973822  4116"},{"name":"STARLINK-37369","line1":"1 69529U 26133X   26182.16670139 -.02461213  00000+0 -22045-1 0  9992","line2":"2 69529  53.1586 251.5613 0000852  81.9749 302.7599 15.70904189  4167"},{"name":"STARLINK-37379","line1":"1 69522U 26133Q   26182.16670139 -.02369004  00000+0 -19201-1 0  9990","line2":"2 69522  53.1592 251.7152 0000791  78.0949 233.3017 15.73682929  4160"},{"name":"STARLINK-37407","line1":"1 69534U 26133AC  26182.16670139 -.02470031  00000+0 -18384-1 0  9997","line2":"2 69534  53.1590 251.2844 0001186  78.0269  79.4887 15.75777915  4164"},{"name":"STARLINK-37408","line1":"1 69518U 26133L   26181.93021516  .00160332  00000+0  80086-3 0  9998","line2":"2 69518  53.1582 252.9945 0002855  57.4894 302.6404 15.80870333  4212"},{"name":"STARLINK-37420","line1":"1 69511U 26133D   26182.13166411  .00205806  00000+0  10192-2 0  9994","line2":"2 69511  53.1588 252.1256 0001359  42.3623 317.7504 15.80924045  4240"},{"name":"STARLINK-37429","line1":"1 69523U 26133R   26182.16670139 -.02337717  00000+0 -28159-1 0  9999","line2":"2 69523  53.1594 251.8815 0001161  88.2884 141.4185 15.63511342  4167"},{"name":"STARLINK-37438","line1":"1 69526U 26133U   26182.16670139 -.02478399  00000+0 -24517-1 0  9998","line2":"2 69526  53.1589 251.7079 0000706  79.2192 235.2431 15.68565502  4169"},{"name":"STARLINK-37484","line1":"1 69527U 26133V   26182.15829560  .00268047  00000+0  13154-2 0  9991","line2":"2 69527  53.1584 251.5585 0001107  51.9476 308.1646 15.80946327  2992"},{"name":"STARLINK-37490","line1":"1 69525U 26133T   26182.15992664 -.00995870  00000+0 -60857-2 0  9990","line2":"2 69525  53.1582 251.5685 0006452  12.2197 347.8981 15.79217360  4256"},{"name":"STARLINK-37510","line1":"1 69520U 26133N   26182.16670139 -.02392875  00000+0 -23359-1 0  9999","line2":"2 69520  53.1594 251.8908 0001165  89.1902 137.2362 15.68758732  4118"},{"name":"STARLINK-37511","line1":"1 69512U 26133E   26182.13298466  .00298275  00000+0  14559-2 0  9994","line2":"2 69512  53.1585 252.1345 0000989  54.7334 305.3781 15.80980578  2983"},{"name":"STARLINK-37523","line1":"1 69528U 26133W   26182.16670139 -.02506826  00000+0 -22754-1 0  9998","line2":"2 69528  53.1590 251.5881 0000782  77.4030 295.0183 15.70655158  4165"},{"name":"STARLINK-37552","line1":"1 69513U 26133F   26182.16670139 -.02403997  00000+0 -27467-1 0  9993","line2":"2 69513  53.1590 252.1026 0001318  86.0701  38.3135 15.64928361  4116"},{"name":"STARLINK-37570","line1":"1 69519U 26133M   26182.16670139 -.02492924  00000+0 -26301-1 0  9993","line2":"2 69519  53.1596 251.8913 0001076  81.7117 143.8924 15.67022518  4113"},{"name":"STARLINK-37586","line1":"1 69521U 26133P   26182.17130861  .00389854  00000+0  18776-2 0  9991","line2":"2 69521  53.1577 251.6470 0001113  70.9708 289.1435 15.81026042  4257"},{"name":"STARLINK-37607","line1":"1 69514U 26133G   26182.12781222  .00233897  00000+0  11522-2 0  9998","line2":"2 69514  53.1586 252.0983 0000815  90.9212 269.1905 15.80958351  4237"},{"name":"STARLINK-37670","line1":"1 69530U 26133Y   26182.16670139 -.02456880  00000+0 -26478-1 0  9992","line2":"2 69530  53.1591 251.5923 0000736  78.7152 290.7584 15.66453844  4164"},{"name":"STARLINK-37888","line1":"1 69535U 26133AD  26182.16670139 -.02439791  00000+0 -19003-1 0  9995","line2":"2 69535  53.1592 251.2200 0001242  88.7241  99.8996 15.74702391  4111"},{"name":"STARLINK-37889","line1":"1 69536U 26133AE  26182.16670139 -.02405017  00000+0 -26998-1 0  9991","line2":"2 69536  53.1598 251.8897 0001121  84.8872 142.5867 15.65369811  4118"},{"name":"STARLINK-37890","line1":"1 69533U 26133AB  26182.16670139 -.02350352  00000+0 -18651-1 0  9996","line2":"2 69533  53.1590 251.3425 0001151  71.7736  58.1677 15.74131504  4113"},{"name":"STARLINK-37897","line1":"1 69531U 26133Z   26182.14960757  .00348089  00000+0  16877-2 0  9999","line2":"2 69531  53.1579 251.4974 0001787  20.9344 339.1752 15.80992580  4251"},{"name":"STARLINK-37933","line1":"1 69532U 26133AA  26182.16670139 -.02494479  00000+0 -21200-1 0  9998","line2":"2 69532  53.1589 251.4170 0001085  54.0426  40.0506 15.72177379  4113"},{"name":"ZHUQUE-2E R/B","line1":"1 69537U 26128C   26181.68617982  .00046174  00000+0  42951-3 0  9999","line2":"2 69537  54.5280 240.0817 0066901  21.5376 338.8448 15.64075066  3331"}]}