OBJECT_NAME,OBJECT_ID,EPOCH,MEAN_MOTION,ECCENTRICITY,INCLINATION,RA_OF_ASC_NODE,ARG_OF_PERICENTER,MEAN_ANOMALY,EPHEMERIS_TYPE,CLASSIFICATION_TYPE,NORAD_CAT_ID,ELEMENT_SET_NO,REV_AT_EPOCH,BSTAR,MEAN_MOTION_DOT,MEAN_MOTION_DDOT
STARLINK-37420,2026-133D,2026-07-01T03:09:35.779104,15.80924045,.0001359,53.1588,252.1256,42.3623,317.7504,0,U,69511,999,424,.10192E-2,.205806E-2,0
STARLINK-37511,2026-133E,2026-07-01T03:11:29.874624,15.80980578,.0000989,53.1585,252.1345,54.7334,305.3781,0,U,69512,999,298,.14559E-2,.298275E-2,0
STARLINK-37552,2026-133F,2026-07-01T04:00:03.000096,15.64928361,.0001318,53.1590,252.1026,86.0701,38.3135,0,U,69513,999,411,-.27467E-1,-.2403997E-1,0
STARLINK-37607,2026-133G,2026-07-01T03:04:02.975808,15.80958351,.0000815,53.1586,252.0983,90.9212,269.1905,0,U,69514,999,423,.11522E-2,.233897E-2,0
STARLINK-37232,2026-133H,2026-07-01T04:00:03.000096,15.70056817,.0001194,53.1594,251.9399,86.6552,116.4148,0,U,69515,999,411,-.23267E-1,-.2500701E-1,0
STARLINK-37323,2026-133J,2026-07-01T02:57:40.455360,15.80973029,.0001386,53.1586,252.0682,29.3556,330.7544,0,U,69516,999,423,.13442E-2,.274475E-2,0
STARLINK-37357,2026-133K,2026-07-01T04:00:03.000096,15.62973822,.0001315,53.1594,252.0523,74.1829,73.4743,0,U,69517,999,411,-.2968E-1,-.2402819E-1,0
STARLINK-37408,2026-133L,2026-06-30T22:19:30.589824,15.80870333,.0002855,53.1582,252.9945,57.4894,302.6404,0,U,69518,999,421,.80086E-3,.160332E-2,0
STARLINK-37570,2026-133M,2026-07-01T04:00:03.000096,15.67022518,.0001076,53.1596,251.8913,81.7117,143.8924,0,U,69519,999,411,-.26301E-1,-.2492924E-1,0
STARLINK-37510,2026-133N,2026-07-01T04:00:03.000096,15.68758732,.0001165,53.1594,251.8908,89.1902,137.2362,0,U,69520,999,411,-.23359E-1,-.2392875E-1,0
STARLINK-37586,2026-133P,2026-07-01T04:06:41.063904,15.81026042,.0001113,53.1577,251.6470,70.9708,289.1435,0,U,69521,999,425,.18776E-2,.389854E-2,0
STARLINK-37379,2026-133Q,2026-07-01T04:00:03.000096,15.73682929,.0000791,53.1592,251.7152,78.0949,233.3017,0,U,69522,999,416,-.19201E-1,-.2369004E-1,0
STARLINK-37429,2026-133R,2026-07-01T04:00:03.000096,15.63511342,.0001161,53.1594,251.8815,88.2884,141.4185,0,U,69523,999,416,-.28159E-1,-.2337717E-1,0
STARLINK-37352,2026-133S,2026-07-01T04:00:03.000096,15.72874032,.0000776,53.1590,251.6711,78.8389,253.3735,0,U,69524,999,416,-.19977E-1,-.2378056E-1,0
STARLINK-37490,2026-133T,2026-07-01T03:50:17.661696,15.79217360,.0006452,53.1582,251.5685,12.2197,347.8981,0,U,69525,999,425,-.60857E-2,-.99587E-2,0
STARLINK-37438,2026-133U,2026-07-01T04:00:03.000096,15.68565502,.0000706,53.1589,251.7079,79.2192,235.2431,0,U,69526,999,416,-.24517E-1,-.2478399E-1,0
STARLINK-37484,2026-133V,2026-07-01T03:47:56.739840,15.80946327,.0001107,53.1584,251.5585,51.9476,308.1646,0,U,69527,999,299,.13154E-2,.268047E-2,0
STARLINK-37523,2026-133W,2026-07-01T04:00:03.000096,15.70655158,.0000782,53.1590,251.5881,77.4030,295.0183,0,U,69528,999,416,-.22754E-1,-.2506826E-1,0
STARLINK-37369,2026-133X,2026-07-01T04:00:03.000096,15.70904189,.0000852,53.1586,251.5613,81.9749,302.7599,0,U,69529,999,416,-.22045E-1,-.2461213E-1,0
STARLINK-37670,2026-133Y,2026-07-01T04:00:03.000096,15.66453844,.0000736,53.1591,251.5923,78.7152,290.7584,0,U,69530,999,416,-.26478E-1,-.245688E-1,0
STARLINK-37897,2026-133Z,2026-07-01T03:35:26.094048,15.80992580,.0001787,53.1579,251.4974,20.9344,339.1752,0,U,69531,999,425,.16877E-2,.348089E-2,0
STARLINK-37933,2026-133AA,2026-07-01T04:00:03.000096,15.72177379,.0001085,53.1589,251.4170,54.0426,40.0506,0,U,69532,999,411,-.212E-1,-.2494479E-1,0
STARLINK-37890,2026-133AB,2026-07-01T04:00:03.000096,15.74131504,.0001151,53.1590,251.3425,71.7736,58.1677,0,U,69533,999,411,-.18651E-1,-.2350352E-1,0
STARLINK-37407,2026-133AC,2026-07-01T04:00:03.000096,15.75777915,.0001186,53.1590,251.2844,78.0269,79.4887,0,U,69534,999,416,-.18384E-1,-.2470031E-1,0
STARLINK-37888,2026-133AD,2026-07-01T04:00:03.000096,15.74702391,.0001242,53.1592,251.2200,88.7241,99.8996,0,U,69535,999,411,-.19003E-1,-.2439791E-1,0
STARLINK-37889,2026-133AE,2026-07-01T04:00:03.000096,15.65369811,.0001121,53.1598,251.8897,84.8872,142.5867,0,U,69536,999,411,-.26998E-1,-.2405017E-1,0
ZHUQUE-2E R/B,2026-128C,2026-06-30T16:28:05.936448,15.64075066,.00669015,54.5280,240.0817,21.5376,338.8448,0,U,69537,999,333,.42951195E-3,.46174E-3,0
2026-134A,2026-134A,2026-07-01T02:40:13.733184,15.09339832,.0014799,97.7008,252.2684,219.1628,140.8530,0,U,69538,999,241,.3447E-3,.5448E-4,0
2026-134B,2026-134B,2026-07-01T02:37:50.901888,15.09495983,.001489,97.6983,252.2659,221.7966,138.2127,0,U,69539,999,240,.33673E-3,.5344E-4,0
2026-134C,2026-134C,2026-07-01T02:37:22.325952,15.09527840,.0014323,97.6988,252.2673,223.0200,136.9910,0,U,69540,999,240,.33543E-3,.5327E-4,0
